[{"OBJECT_NAME":"OOV-CUBE (TUBSAT-30)","OBJECT_ID":"2024-128F","EPOCH":"2026-03-28T12:46:37.130880","MEAN_MOTION":15.02370641,"ECCENTRICITY":0.00529314,"INCLINATION":61.9947,"RA_OF_ASC_NODE":146.729,"ARG_OF_PERICENTER":116.2323,"MEAN_ANOMALY":244.4223,"EPHEMERIS_TYPE":0,"CLASSIFICATION_TYPE":"U","NORAD_CAT_ID":60240,"ELEMENT_SET_NO":999,"REV_AT_EPOCH":9399,"BSTAR":0.00018377531,"MEAN_MOTION_DOT":2.3e-5,"MEAN_MOTION_DDOT":0},{"OBJECT_NAME":"OBJECT A","OBJECT_ID":"2026-065A","EPOCH":"2026-03-28T22:34:26.975136","MEAN_MOTION":15.18211376,"ECCENTRICITY":0.0015809,"INCLINATION":97.4112,"RA_OF_ASC_NODE":330.1101,"ARG_OF_PERICENTER":287.1112,"MEAN_ANOMALY":72.839,"EPHEMERIS_TYPE":0,"CLASSIFICATION_TYPE":"U","NORAD_CAT_ID":68408,"ELEMENT_SET_NO":999,"REV_AT_EPOCH":8,"BSTAR":7.0532e-5,"MEAN_MOTION_DOT":1.379e-5,"MEAN_MOTION_DDOT":0}]
